#dP2024  2 14  0  0  0.00000000      96 __u+U IGS20 FIT  IAC
## 2301 259200.00000000   900.00000000 60354 0.0000000000000
+  129   C01C02C03C04C05C06C07C08C09C10C11C12C13C14C16C19C20
+        C21C22C23C24C25C26C27C28C29C30C32C33C34C35C36C37C38
+        C39C40C41C42C43C44C45C46C60E02E03E04E05E07E08E09E10
+        E11E12E13E14E15E18E19E21E24E25E26E27E30E31E33E34E36
+        G01G02G03G04G05G06G07G08G09G10G11G12G13G14G15G16G17
+        G18G19G20G21G22G23G24G25G26G27G28G29G30G31G32J02J03
+        J04J07R01R02R03R04R05R06R07R08R09R10R11R12R13R14R15
+        R16R17R18R19R20R21R22R23R24R26  0  0  0  0  0  0  0
++        17 17 17 17 17  9 10 10  9  9  9  9  9  9  9  8  8
++         7  7  7  7  7  7  7  7  7  8  7  7  7  7  8  7  9
++         8  8  7  7  7  7  7  8 17  4  4  5  4  4  4  5  5
++         5  5  4  4  4  5  5  4  4  4  4  5  5  5  5  4  5
++         4  4  4  4  4  4  4  4  4  4  4  4  4  4  4  4  4
++         4  4  4  4  4  4  4  3  4  4  4  4  4  4  4  9  9
++         9 17  7  6  6  6  6 15  6  6  6 15  6  6  7  6  6
++         6  6  6  7  7  6  6 15  6  9  0  0  0  0  0  0  0
%c M  cc GPS ccc cccc cccc cccc cccc ccccc ccccc ccccc ccccc
%c cc cc ccc ccc cccc cccc cccc cccc ccccc ccccc ccccc ccccc
%f  0.0000000  0.000000000  0.00000000000  0.000000000000000
%f  0.0000000  0.000000000  0.00000000000  0.000000000000000
%i    0    0    0    0      0      0      0      0         0
%i    0    0    0    0      0      0      0      0         0
/* INFORMATION & ANALYSIS CENTER (IAC)            RAPID DATA
/* S/V CLOCKS ARE ALIGNED TO GNSS TIME                      
/* G:C1WC2W R:C1PC2P E:C1XC5X C:C2IC6I J:C1CC2S             
/* PCV:IGS20_2290 OL/AL:FES2004  NONE     YN ORB:CoN CLK:CoN
*  2024 02 14  7 15  0.00000000
PC01 -34379.269451  24423.003553   -722.915914    884.614800
PC02   4449.063206  41864.535808  -1601.446733    426.667802
PC03 -14760.282821  39441.309274  -1083.495467    -30.187316
PC04 -39677.364819  14332.577351   -290.576697    850.605360
PC05  21851.793648  35991.073855  -1348.712275   -720.681054
PC06 -10039.884120  40366.335911  -5825.154958    109.151570
PC07  -5057.303885  28158.464963  31086.027599   -798.911410
PC08 -19578.889227  25405.622850 -27478.646862     39.402666
PC09  -5031.765227  41368.041532   3921.718894   -487.965569
PC10   3095.845331  30727.515240  29219.530848     85.705376
PC11  15340.654050  -1519.230744 -23190.985414    409.813667
PC12  13630.783144  18841.008937 -15381.705962    770.320275
PC13 -10346.328523  26048.063234 -31423.114721    417.203974
PC14  25884.572846   1334.921983  10435.361033    186.990453
PC16 -11023.464585  39690.010901  -7802.244047   -338.843761
PC19 -20799.754378   5529.946559 -17721.817643   -926.995881
PC20 -26821.112210  -6970.076236  -3129.142279   -161.299041
PC21  17095.294963  16423.642238 -14724.159722   -962.178415
PC22  -2443.721723  15614.736008 -22998.702565   -110.359815
PC23  12684.869345 -22066.614832 -11441.008253   -781.282217
PC24  19968.291532   1197.112880  19424.898299    883.046893
PC25  22531.494199 -15608.129574   5168.374283    325.791443
PC26   6062.898119  15982.702246  22041.205309   -248.970979
PC27 -10203.346702 -24771.444470   7819.909611    270.960817
PC28    672.681760 -26729.876853  -7988.888817    206.114193
PC29 -12729.833327  12289.347727  21573.813792    241.580551
PC30 -16723.194256  -9615.617659  20167.115606    -25.043912
PC32 -17089.903405 -16330.786550  14840.232152   -567.395299
PC33  20868.080425  -5627.661319  17669.572824   -948.667032
PC34  16837.044294   7857.061890 -20824.782633    368.989158
PC35    225.182676  26689.603844   8062.533068    434.010591
PC36 -23011.431647  14752.790287  -5639.874726    -15.570318
PC37  -5321.568099 -16374.878133 -21955.396530   -936.206166
PC38 -25472.811942  26834.532908 -20282.468242    136.717588
PC39 -12977.387388  37035.151704 -15050.060446     -7.126735
PC40  -8831.806034  22396.136779  34632.924920    -56.430317
PC41   3372.664807 -15403.502537  23080.684874   -890.687613
PC42  26731.530438   7911.273328   1618.565511   -454.601338
PC43  13260.957203 -11362.229282 -21780.823169     60.372306
PC44  11131.382552  24398.184589  -7666.518825    384.034424
PC45 -12621.259404  22000.565597  11654.666137    -70.007170
PC46 -20430.734542   -285.272115 -19038.370899   -123.717853
PC60   7258.717071  41507.099168  -1265.667269     -0.315858
PE02  28734.477782  -6128.886978  -3521.350022    103.272997
PE03  18945.965435  -1435.040887  22698.032029    -93.727436
PE04  -4558.280007  19246.878912 -22012.036106   -326.929021
PE05  22060.834035  16934.844717  10138.025785   4719.892003
PE07 -11990.020620 -25581.006111   8829.107146   -103.692691
PE08   5071.429449 -18685.324618  22389.309780   -223.641198
PE09  11969.223358  25551.445011  -8960.223380   -335.519570
PE10  -6774.188324  28020.633182  -6713.992566   -601.828496
PE11    957.900343  24866.387276 -16017.765641   3247.474837
PE12 -12719.276883  26593.323726   2537.112045   -905.709906
PE13   -421.776107 -25217.012209  15514.966914    -20.182236
PE14  25305.121345  13456.074870 -15205.215933     38.963617
PE15  12970.392506 -26435.890295  -3073.269118    -85.723189
PE18 -18163.271975  -5255.763341  14201.891417    324.953676
PE19 -19847.895934  -1002.832404 -21929.118359   -618.035545
PE21 -25282.747709  -6433.578943 -13999.805937   -578.943517
PE24   6388.065202  15999.611786  24045.111577   -597.389477
PE25  25034.890113   6676.035646  14301.463052      0.864882
PE26 -13825.631275  -8682.448615  24700.966355    368.328264
PE27  -6920.386580 -15835.570073 -24039.429053   -274.334003
PE30  15571.360830 -15740.498285 -19655.030392      4.431205
PE31 -15330.351803  15796.649342  19791.036630    -15.969296
PE33 -18574.543014  11567.785727  19940.554926      7.564843
PE34  18550.190663 -12171.012076 -19592.518057    -94.551358
PE36  13351.751875   9271.459745 -24728.801320   -185.725106
PG01 -12257.290795  23002.496110   3750.489746    169.485089
PG02 -14622.370508  18340.335714  12706.440479   -485.697761
PG03 -19561.227359  11961.017986 -13448.072971    192.133022
PG04  -9433.538957  12326.835043 -21520.795590    291.291737
PG05  25848.327077  -6123.177106   1382.459683   -161.757007
PG06   9172.692775  13631.373953 -20770.874105    407.705949
PG07  -3738.888523  24961.465957   7928.654430    -61.569109
PG08 -15805.962601   4245.439462  20897.879352   -166.959055
PG09   2885.401350  21012.490756 -16033.665729     91.629729
PG10 -13462.605279 -11531.357279  20088.868389      0.388501
PG11  15521.389360   1626.748825 -21460.364952   -575.249770
PG12  20566.760162 -10799.052837 -13103.407859   -477.827564
PG13  18180.054792   6392.250531  18172.219374    625.381823
PG14   9246.039030  13905.472578  20714.281180    325.314968
PG15  15390.695681  -6161.425597  20299.422905    127.536196
PG16 -26507.857998  -1242.402742  -4141.757017   -363.008329
PG17  11891.307174  23167.861509   5212.642638    717.039660
PG18   3843.904624 -24708.400339   8687.442275   -555.215887
PG19  16863.662202  20232.149081  -4888.425700    440.444885
PG20  23826.980466    624.787973 -11486.001240    387.561322
PG21 -15919.375546  13087.933755  16655.599303    134.988234
PG22  16325.858766  11482.987244  17806.284278     31.490636
PG23    372.322241 -15061.709061  21881.154862    155.848436
PG24  14968.367210 -17012.642643  13105.185435   -431.451010
PG25   9898.581269 -15626.499211 -19300.230815    488.531377
PG26 -22082.357939  -5657.149241 -14073.041453    190.382707
PG27 -20264.124201  -8713.644321  14826.186791     -3.889457
PG28  -8457.037226 -16284.634926 -19224.483662   -130.535445
PG29    220.823334 -20346.917789 -17065.016317   -607.010994
PG30   4504.752662  20677.843697  16013.475940   -432.790401
PG31 -13979.761711  -6597.652156 -21799.995648   -227.762993
PG32 -15642.836295 -21525.344647   2062.023098   -611.533299
PJ02 -31303.512667  23116.910174  21318.750834     -1.972085
PJ03 -29066.174362  26900.302165  19632.628446     -0.224706
PJ04 -25204.408017  21734.534961 -20857.883525     50.916543
PJ07 -25374.158749  33668.181983    -50.933668     -0.014638
PR01 -18709.932497 -14737.279200   9124.603443     77.136007
PR02 -22572.914363  -8439.155296  -8414.603299    -22.464200
PR03 -13967.737908   3484.374810 -21022.350049     94.488137
PR04   2140.323073  12904.430273 -21861.937088    223.370935
PR05  16961.529310  15609.223827 -10880.584845    126.888172
PR06  22658.167637   6687.299815   9589.871325   -150.614486
PR07  13160.183233  -4168.452215  21482.387537     75.785957
PR08  -2422.896093 -13119.859301  21811.896053    -74.406117
PR09  20330.665688  -4193.332401  14892.900380    169.904737
PR10  21863.369649 -13031.481166    792.564292   -122.804319
PR11  11635.017114 -16058.484676 -16048.320586     34.390983
PR12  -7129.968304  -8555.580886 -22931.794891     36.732386
PR13 -19109.358045   2331.594049 -16759.272753    -44.334548
PR14 -21360.407190  13860.206481   1362.303579     26.067649
PR15 -10395.021086  15846.495336  17082.716254     82.209812
PR16   6840.122899   8566.330574  23034.944842     23.272991
PR17  -8545.593174  14850.699686  18921.527759     61.111885
PR18  -2460.753601  24829.645417   5176.182400    127.311327
PR19   3583.725668  23243.155019  -9871.211221   -265.748255
PR20   9967.434694   5420.469084 -22828.581394   -108.245201
PR21   8520.941161 -14993.772791 -18783.337933    -76.849365
PR22   2715.054301 -25053.521157  -3986.005767    108.029108
PR23  -5603.149289 -21178.763421  13071.494561   -111.911323
PR24 -10717.350619  -4405.651681  22742.974846    -43.850642
PR26  -1524.252317 -12699.045641  22089.452659   -198.460781
EOF
